start=new Date('2022-07-20T00:00:00.000Z').valueOf();
sats=[{"ARG_OF_PERICENTER":"74.8159","TLE_LINE1":"1 48553U 21041A   22200.68378487  .00009647  00000-0  66539-3 0  9998","OBJECT_ID":"2021-041A","SITE":"AFETR","INCLINATION":"53.0545","APOAPSIS":"548.259","REV_AT_EPOCH":"6489","ELEMENT_SET_NO":"999","GP_ID":"208470211","MEAN_MOTION":"15.06413532","OBJECT_NAME":"STARLINK-2063","CENTER_NAME":"EARTH","CLASSIFICATION_TYPE":"U","MEAN_ANOMALY":"285.3004","TLE_LINE2":"2 48553  53.0545 337.7601 0001569  74.8159 285.3004 15.06413532 64890","FILE":"3517796","LAUNCH_DATE":"2021-05-15","MEAN_MOTION_DDOT":"0.0000000000000","ECCENTRICITY":"0.00015690","PERIOD":"95.591","SEMIMAJOR_AXIS":"6925.307","NORAD_CAT_ID":"48553","COUNTRY_CODE":"US","TIME_SYSTEM":"UTC","EPHEMERIS_TYPE":"0","OBJECT_TYPE":"PAYLOAD","DECAY_DATE":null,"REF_FRAME":"TEME","RCS_SIZE":"LARGE","MEAN_MOTION_DOT":"0.00009647","PERIAPSIS":"546.086","BSTAR":"0.00066539000000","RA_OF_ASC_NODE":"337.7601","EPOCH":"2022-07-19T16:24:39.012768","MEAN_ELEMENT_THEORY":"SGP4"},{"DECAY_DATE":null,"REF_FRAME":"TEME","OBJECT_TYPE":"PAYLOAD","TIME_SYSTEM":"UTC","EPHEMERIS_TYPE":"0","NORAD_CAT_ID":"48554","COUNTRY_CODE":"US","PERIOD":"95.593","SEMIMAJOR_AXIS":"6925.377","EPOCH":"2022-07-19T19:46:20.768736","MEAN_ELEMENT_THEORY":"SGP4","RA_OF_ASC_NODE":"337.1417","BSTAR":"0.00010720000000","PERIAPSIS":"546.239","RCS_SIZE":"LARGE","MEAN_MOTION_DOT":"0.00001315","CENTER_NAME":"EARTH","MEAN_ANOMALY":"261.6519","CLASSIFICATION_TYPE":"U","TLE_LINE2":"2 48554  53.0550 337.1417 0001448  98.4634 261.6519 15.06390722 64918","OBJECT_NAME":"STARLINK-2139","MEAN_MOTION":"15.06390722","GP_ID":"208471463","ELEMENT_SET_NO":"999","INCLINATION":"53.0550","APOAPSIS":"548.245","REV_AT_EPOCH":"6491","ARG_OF_PERICENTER":"98.4634","TLE_LINE1":"1 48554U 21041B   22200.82385149  .00001315  00000-0  10720-3 0  9993","SITE":"AFETR","OBJECT_ID":"2021-041B","ECCENTRICITY":"0.00014480","MEAN_MOTION_DDOT":"0.0000000000000","LAUNCH_DATE":"2021-05-15","FILE":"3517796"},{"DECAY_DATE":null,"REF_FRAME":"TEME","OBJECT_TYPE":"PAYLOAD","TIME_SYSTEM":"UTC","EPHEMERIS_TYPE":"0","NORAD_CAT_ID":"48555","COUNTRY_CODE":"US","PERIOD":"95.592","SEMIMAJOR_AXIS":"6925.352","EPOCH":"2022-07-19T17:16:23.687040","MEAN_ELEMENT_THEORY":"SGP4","BSTAR":"0.00011430000000","RA_OF_ASC_NODE":"347.6021","PERIAPSIS":"546.397","RCS_SIZE":"LARGE","MEAN_MOTION_DOT":"0.00001421","MEAN_ANOMALY":"287.9727","CLASSIFICATION_TYPE":"U","CENTER_NAME":"EARTH","TLE_LINE2":"2 48555  53.0544 347.6021 0001185  72.1391 287.9727 15.06398751 64750","OBJECT_NAME":"STARLINK-2145","GP_ID":"208471714","ELEMENT_SET_NO":"999","MEAN_MOTION":"15.06398751","INCLINATION":"53.0544","APOAPSIS":"548.038","REV_AT_EPOCH":"6475","ARG_OF_PERICENTER":"72.1391","SITE":"AFETR","TLE_LINE1":"1 48555U 21041C   22200.71971860  .00001421  00000-0  11430-3 0  9990","OBJECT_ID":"2021-041C","ECCENTRICITY":"0.00011850","MEAN_MOTION_DDOT":"0.0000000000000","LAUNCH_DATE":"2021-05-15","FILE":"3517796"},{"TIME_SYSTEM":"UTC","EPHEMERIS_TYPE":"0","DECAY_DATE":null,"REF_FRAME":"TEME","OBJECT_TYPE":"PAYLOAD","NORAD_CAT_ID":"48556","COUNTRY_CODE":"US","PERIOD":"95.592","SEMIMAJOR_AXIS":"6925.355","PERIAPSIS":"546.236","EPOCH":"2022-07-19T20:11:32.697024","MEAN_ELEMENT_THEORY":"SGP4","BSTAR":"0.00007659100000","RA_OF_ASC_NODE":"347.0645","MEAN_MOTION_DOT":"0.00000859","RCS_SIZE":"LARGE","OBJECT_NAME":"STARLINK-2151","ELEMENT_SET_NO":"999","GP_ID":"208470462","MEAN_MOTION":"15.06397828","CENTER_NAME":"EARTH","MEAN_ANOMALY":"284.6623","CLASSIFICATION_TYPE":"U","TLE_LINE2":"2 48556  53.0549 347.0645 0001421  75.4524 284.6623 15.06397828 64774","INCLINATION":"53.0549","APOAPSIS":"548.204","REV_AT_EPOCH":"6477","ARG_OF_PERICENTER":"75.4524","SITE":"AFETR","TLE_LINE1":"1 48556U 21041D   22200.84135066  .00000859  00000-0  76591-4 0  9999","OBJECT_ID":"2021-041D","ECCENTRICITY":"0.00014210","LAUNCH_DATE":"2021-05-15","FILE":"3517796","MEAN_MOTION_DDOT":"0.0000000000000"},{"ARG_OF_PERICENTER":"91.2291","OBJECT_ID":"2021-041E","TLE_LINE1":"1 48557U 21041E   22200.77961031  .00002414  00000-0  18089-3 0  9997","SITE":"AFETR","APOAPSIS":"548.097","INCLINATION":"53.0545","REV_AT_EPOCH":"6490","CENTER_NAME":"EARTH","MEAN_ANOMALY":"268.8847","CLASSIFICATION_TYPE":"U","TLE_LINE2":"2 48557  53.0545 337.3297 0001298  91.2291 268.8847 15.06405109 64904","MEAN_MOTION":"15.06405109","GP_ID":"208470712","ELEMENT_SET_NO":"999","OBJECT_NAME":"STARLINK-2155","MEAN_MOTION_DDOT":"0.0000000000000","FILE":"3517796","LAUNCH_DATE":"2021-05-15","ECCENTRICITY":"0.00012980","PERIOD":"95.592","SEMIMAJOR_AXIS":"6925.333","NORAD_CAT_ID":"48557","COUNTRY_CODE":"US","OBJECT_TYPE":"PAYLOAD","DECAY_DATE":null,"REF_FRAME":"TEME","TIME_SYSTEM":"UTC","EPHEMERIS_TYPE":"0","MEAN_MOTION_DOT":"0.00002414","RCS_SIZE":"LARGE","BSTAR":"0.00018089000000","RA_OF_ASC_NODE":"337.3297","EPOCH":"2022-07-19T18:42:38.330784","MEAN_ELEMENT_THEORY":"SGP4","PERIAPSIS":"546.299"},{"ECCENTRICITY":"0.00013350","FILE":"3517796","LAUNCH_DATE":"2021-05-15","MEAN_MOTION_DDOT":"0.0000000000000","ELEMENT_SET_NO":"999","GP_ID":"208470963","MEAN_MOTION":"15.06411392","OBJECT_NAME":"STARLINK-2166","CLASSIFICATION_TYPE":"U","MEAN_ANOMALY":"263.9665","CENTER_NAME":"EARTH","TLE_LINE2":"2 48558  53.0554 337.3519 0001335  96.1476 263.9665 15.06411392 64043","ARG_OF_PERICENTER":"96.1476","TLE_LINE1":"1 48558U 21041F   22200.77593001  .00006717  00000-0  46925-3 0  9996","OBJECT_ID":"2021-041F","SITE":"AFETR","INCLINATION":"53.0554","APOAPSIS":"548.103","REV_AT_EPOCH":"6404","PERIAPSIS":"546.254","RA_OF_ASC_NODE":"337.3519","BSTAR":"0.00046925000000","EPOCH":"2022-07-19T18:37:20.352864","MEAN_ELEMENT_THEORY":"SGP4","MEAN_MOTION_DOT":"0.00006717","RCS_SIZE":"LARGE","TIME_SYSTEM":"UTC","EPHEMERIS_TYPE":"0","OBJECT_TYPE":"PAYLOAD","DECAY_DATE":null,"REF_FRAME":"TEME","PERIOD":"95.591","SEMIMAJOR_AXIS":"6925.314","NORAD_CAT_ID":"48558","COUNTRY_CODE":"US"},{"MEAN_MOTION_DDOT":"0.0000000000000","FILE":"3517796","LAUNCH_DATE":"2021-05-15","ECCENTRICITY":"0.00013080","ARG_OF_PERICENTER":"88.0421","SITE":"AFETR","TLE_LINE1":"1 48559U 21041G   22200.81184689  .00001068  00000-0  90574-4 0  9994","OBJECT_ID":"2021-041G","INCLINATION":"53.0558","APOAPSIS":"548.111","REV_AT_EPOCH":"6490","CLASSIFICATION_TYPE":"U","MEAN_ANOMALY":"272.0718","CENTER_NAME":"EARTH","TLE_LINE2":"2 48559  53.0558 337.1789 0001308  88.0421 272.0718 15.06402860 64900","GP_ID":"208471214","ELEMENT_SET_NO":"999","MEAN_MOTION":"15.06402860","OBJECT_NAME":"STARLINK-2167","MEAN_MOTION_DOT":"0.00001068","RCS_SIZE":"LARGE","RA_OF_ASC_NODE":"337.1789","BSTAR":"0.00009057400000","EPOCH":"2022-07-19T19:29:03.571296","MEAN_ELEMENT_THEORY":"SGP4","PERIAPSIS":"546.299","PERIOD":"95.592","SEMIMAJOR_AXIS":"6925.340","NORAD_CAT_ID":"48559","COUNTRY_CODE":"US","OBJECT_TYPE":"PAYLOAD","DECAY_DATE":null,"REF_FRAME":"TEME","TIME_SYSTEM":"UTC","EPHEMERIS_TYPE":"0"},{"NORAD_CAT_ID":"48561","COUNTRY_CODE":"US","PERIOD":"95.592","SEMIMAJOR_AXIS":"6925.327","DECAY_DATE":null,"REF_FRAME":"TEME","OBJECT_TYPE":"PAYLOAD","TIME_SYSTEM":"UTC","EPHEMERIS_TYPE":"0","MEAN_MOTION_DOT":"0.00006854","RCS_SIZE":"LARGE","EPOCH":"2022-07-19T16:39:17.580672","MEAN_ELEMENT_THEORY":"SGP4","BSTAR":"0.00047851000000","RA_OF_ASC_NODE":"307.9902","PERIAPSIS":"546.288","APOAPSIS":"548.095","INCLINATION":"53.0533","REV_AT_EPOCH":"6531","ARG_OF_PERICENTER":"105.2226","TLE_LINE1":"1 48561U 21041J   22200.69395348  .00006854  00000-0  47851-3 0  9996","OBJECT_ID":"2021-041J","SITE":"AFETR","CENTER_NAME":"EARTH","CLASSIFICATION_TYPE":"U","MEAN_ANOMALY":"254.8907","TLE_LINE2":"2 48561  53.0533 307.9902 0001305 105.2226 254.8907 15.06407135 65314","OBJECT_NAME":"STARLINK-2186","GP_ID":"208469963","ELEMENT_SET_NO":"999","MEAN_MOTION":"15.06407135","MEAN_MOTION_DDOT":"0.0000000000000","LAUNCH_DATE":"2021-05-15","FILE":"3517796","ECCENTRICITY":"0.00013050"},{"TIME_SYSTEM":"UTC","EPHEMERIS_TYPE":"0","OBJECT_TYPE":"PAYLOAD","DECAY_DATE":null,"REF_FRAME":"TEME","PERIOD":"95.591","SEMIMAJOR_AXIS":"6925.308","NORAD_CAT_ID":"48562","COUNTRY_CODE":"US","PERIAPSIS":"546.280","BSTAR":"0.00024219000000","RA_OF_ASC_NODE":"337.4418","EPOCH":"2022-07-19T18:05:28.725216","MEAN_ELEMENT_THEORY":"SGP4","MEAN_MOTION_DOT":"0.00003329","RCS_SIZE":"LARGE","MEAN_MOTION":"15.06413173","GP_ID":"208470212","ELEMENT_SET_NO":"999","OBJECT_NAME":"STARLINK-2187","MEAN_ANOMALY":"259.1108","CENTER_NAME":"EARTH","CLASSIFICATION_TYPE":"U","TLE_LINE2":"2 48562  53.0556 337.4418 0001290 101.0026 259.1108 15.06413173 64909","ARG_OF_PERICENTER":"101.0026","TLE_LINE1":"1 48562U 21041K   22200.75380469  .00003329  00000-0  24219-3 0  9999","SITE":"AFETR","OBJECT_ID":"2021-041K","APOAPSIS":"548.067","INCLINATION":"53.0556","REV_AT_EPOCH":"6490","ECCENTRICITY":"0.00012900","FILE":"3517796","LAUNCH_DATE":"2021-05-15","MEAN_MOTION_DDOT":"0.0000000000000"},{"TLE_LINE1":"1 48563U 21041L   22200.70589006  .00001550  00000-0  12286-3 0  9998","SITE":"AFETR","OBJECT_ID":"2021-041L","ARG_OF_PERICENTER":"74.4921","REV_AT_EPOCH":"6489","INCLINATION":"53.0547","APOAPSIS":"548.124","GP_ID":"208471464","ELEMENT_SET_NO":"999","MEAN_MOTION":"15.06411814","OBJECT_NAME":"STARLINK-2188","TLE_LINE2":"2 48563  53.0547 337.6595 0001367  74.4921 285.6219 15.06411814 64895","MEAN_ANOMALY":"285.6219","CLASSIFICATION_TYPE":"U","CENTER_NAME":"EARTH","FILE":"3517796","LAUNCH_DATE":"2021-05-15","MEAN_MOTION_DDOT":"0.0000000000000","ECCENTRICITY":"0.00013670","SEMIMAJOR_AXIS":"6925.312","PERIOD":"95.591","COUNTRY_CODE":"US","NORAD_CAT_ID":"48563","EPHEMERIS_TYPE":"0","TIME_SYSTEM":"UTC","OBJECT_TYPE":"PAYLOAD","REF_FRAME":"TEME","DECAY_DATE":null,"RCS_SIZE":"LARGE","MEAN_MOTION_DOT":"0.00001550","PERIAPSIS":"546.231","RA_OF_ASC_NODE":"337.6595","BSTAR":"0.00012286000000","MEAN_ELEMENT_THEORY":"SGP4","EPOCH":"2022-07-19T16:56:28.901184"}];
